#cP2018  7  6  0  0  0.00000000     192 ORBIT IGS14 HLM  IGS
## 2008 432000.00000000   900.00000000 58305 0.0000000000000
+   31   G01G02G03G05G06G07G08G09G10G11G12G13G14G15G16G17G18
+        G19G20G21G22G23G24G25G26G27G28G29G30G31G32  0  0  0
+          0  0  0  0  0  0  0  0  0  0  0  0  0  0  0  0  0
+          0  0  0  0  0  0  0  0  0  0  0  0  0  0  0  0  0
+          0  0  0  0  0  0  0  0  0  0  0  0  0  0  0  0  0
++         4  4  3  4  4  3  3  3  4  3  3  4  3  3  3  3  4
++         3  4  3  4  3  4  3  4  3  4  4  3  3  3  0  0  0
++         0  0  0  0  0  0  0  0  0  0  0  0  0  0  0  0  0
++         0  0  0  0  0  0  0  0  0  0  0  0  0  0  0  0  0
++         0  0  0  0  0  0  0  0  0  0  0  0  0  0  0  0  0
%c G  cc GPS ccc cccc cccc cccc cccc ccccc ccccc ccccc ccccc
%c cc cc ccc ccc cccc cccc cccc cccc ccccc ccccc ccccc ccccc
%f  1.2500000  1.025000000  0.00000000000  0.000000000000000
%f  0.0000000  0.000000000  0.00000000000  0.000000000000000
%i    0    0    0    0      0      0      0      0         0
%i    0    0    0    0      0      0      0      0         0
/* ULTRA ORBIT COMBINATION 20086_00 (58306.000) FROM:       
/* cou emu esu gfu siu usu whu                              
/* REFERENCED TO emu CLOCK AND TO WEIGHTED MEAN POLE:       
/* PCV:IGS14_2006 OL/AL:FES2004  NONE     Y  ORB:CMB CLK:CMB
*  2018  7  6 18 45  0.00000000
PG01  18239.969814   6689.492949  18091.516340    -63.155880  4     5 133       
PG02 -14718.394021 -22262.835228    320.122494     65.316734  7  7  8 207       
PG03  17870.662308  -4666.476696  19041.352160    101.374399     5    203       
PG05  -7696.448471 -15904.791151 -19873.511852     -5.006568  5  3  7 140       
PG06  -3643.258492 -23025.536465  12733.114062    389.691508  6  9  9 155       
PG07  11827.470829  -9688.411823 -21460.470148    163.349533 10 10  2 166       
PG08  24188.902138   5872.413721  -9436.162106   -107.256586  5  2  3 188       
PG09  22695.635406  -8395.930007 -10988.496374    514.106737 10  9  9 224       
PG10 -10222.383854  24096.257192   4005.013658    188.874698  5  8  5 210       
PG11  23329.534052   6786.109727   9968.213703   -731.196389  3     6 178       
PG12 -16013.014771   -762.876541  20944.242591    322.726442  4  9  7 207       
PG13 -17835.562808 -12508.490816 -15304.074096    -92.741002  9 11  7 176       
PG14   3512.361891  15410.181021  21668.083388    -97.580232  5  9  3 188       
PG15 -25604.995078  -3057.495714  -7374.533050   -351.287959  6  9  6 184       
PG16   4941.260026  16556.005018 -20202.784517     18.784565  9  9    206       
PG17   7390.245306 -14132.370357  21603.383812    -80.979083  5  8  6 205       
PG18  19047.612466  14520.537050  11200.510130     30.401140  9  8  4 210       
PG19  -2072.393478 -14756.717771  21675.909061   -422.598301  6  9  4 187       
PG20 -14277.256493  21443.681533  -6388.433522    511.911582  6 10  7 209       
PG21  -8174.518673  14088.722662 -20191.513114   -371.313704  6  9  2 219       
PG22  15693.591884   4283.962898  21238.022501   -449.305907  3  3    235       
PG23  26788.659296   -612.984896    163.294044   -214.881036  2  7  5 176       
PG24 -19561.262641  -9697.090906  15201.703042    -52.198579  6  8  9 182       
PG25 -18121.955234  13951.448012  13120.560811   -612.033228  5  6  1 144       
PG26  -2042.709129  23083.907787 -12866.535548    -92.336589  8  8  9 188       
PG27  15107.254210  12139.269446 -18362.580894    362.477067  5  4  4 149       
PG28  13482.563758 -22829.873754   2565.977264    729.240217  4  2  6 166       
PG29 -24225.908014   5197.594259  -9581.749878    419.598119  7  8 10 229       
PG30   4628.176102 -18992.032277 -17892.508696     53.836390 11  5  1 185       
PG31   4302.254574  23576.340413  11015.731937    109.579934  5  7  2 200       
PG32  -7045.902200  14864.484766  20877.869383   -480.545871  6  6  3 177       
*  2018  7  6 19  0  0.00000000
PG01  19193.653612   8433.756367  16331.061879    -63.159244  4     4 142       
PG02 -14425.992469 -22306.095749   3134.027726     65.307151  7  7  7 208       
PG03  16930.824681  -2614.083875  20258.104314    101.379978     4    199       
PG05  -6605.376943 -17809.237181 -18583.877343     -5.006471  5  6  6 135       
PG06  -2641.793312 -21792.131783  14963.231333    389.688255  6  8  9 159       
PG07  13167.540031  -7562.285816 -21574.606540    163.343767 10  9  3 159       
PG08  22979.247300   6135.458855 -11934.416831   -107.257963  5  2  3 182       
PG09  23818.068159  -8212.364975  -8453.913266    514.106393  9  9  9 223       
PG10 -10591.328435  24234.749389   1158.975989    188.874663  5  8  5 215       
PG11  24019.273820   7707.231946   7473.016122   -731.195316  4  3  5 173       
PG12 -14783.359435  -2911.761096  21657.577532    322.724046  3 10  6 208       
PG13 -15987.588345 -12525.492010 -17224.624614    -92.740706 10 11  7 161       
PG14   1082.805753  15349.826411  21954.958004    -97.580317  5  8  3 189       
PG15 -24693.354156  -3465.355624  -9904.126338   -351.287250  6 10  6 181       
PG16   3681.053964  18372.040371 -18808.079759     18.783200  8  9    203       
PG17   9726.253522 -14060.213645  20678.240397    -80.975565  5  8  6 206       
PG18  19528.822758  15643.903756   8698.033080     30.405555  9  8  5 204       
PG19    476.257262 -14643.150475  21857.804418   -422.595701  6  8  5 186       
PG20 -14268.629361  20511.635652  -8993.937743    511.912454  6 10  7 211       
PG21  -9692.626087  12080.286963 -20786.841159   -371.309001  6 10  2 220       
PG22  14735.149509   6484.660162  21369.585115   -449.317119  4  4    236       
PG23  26660.373438   -334.253579   2951.460969   -214.880501  2  6  6 172       
PG24 -20319.542033 -11158.247739  13100.162580    -52.200216  6  8  9 187       
PG25 -17515.828896  12393.523114  15315.803464   -612.038536  4  6  3 161       
PG26  -2847.756949  24179.574049 -10464.392358    -92.325650  8  7  8 191       
PG27  12958.771019  12334.638445 -19800.866427    362.475190  5  4  3 164       
PG28  13666.015135 -22783.894834   -332.328398    729.242720  4  2  6 161       
PG29 -25160.095343   5007.547581  -6889.214425    419.592153  7  8 10 231       
PG30   5827.389202 -17211.500876 -19302.721607     53.832185 11  5    201       
PG31   3381.541947  22488.731421  13400.997865    109.577475  5  6  2 203       
PG32  -9375.998973  14893.973936  19908.309255   -480.539026  6  5  4 178       
*  2018  7  6 19 15  0.00000000
PG01  20113.794995   9946.101572  14290.016549    -63.162594  4  3  4 147       
PG02 -13942.837202 -22119.961496   5895.170746     65.297389  7  7  6 206       
PG03  16051.036682   -408.155414  21125.109999    101.385539     4    197       
PG05  -5673.076512 -19616.898521 -16974.945436     -5.005513  5  7  6 159       
PG06  -1435.114140 -20422.380773  16936.024204    389.685049  7  7  9 161       
PG07  14606.899016  -5518.408602 -21309.987919    163.338161 10  8  4 160       
PG08  21515.682706   6495.461853 -14228.429555   -107.259139  6  3  4 179       
PG09  24655.828437  -8051.675877  -5774.068528    514.105918  8  8  9 224       
PG10 -10821.594771  24095.138329  -1707.201221    188.874644  6  8  5 218       
PG11  24495.748847   8448.259607   4845.448052   -731.194057  5  6  6 172       
PG12 -13647.616585  -5177.468466  21990.737654    322.721771  2 10  5 209       
PG13 -13943.614552 -12638.063076 -18851.099987    -92.740337 10 11  7 171       
PG14  -1359.664082  15418.598983  21874.521946    -97.580365  4  8  3 185       
PG15 -23534.855848  -3966.251661 -12268.348677   -351.286589  6 11  5 185       
PG16   2606.368783  20103.602278 -17089.320768     18.781888  8  9    199       
PG17  11942.808637 -14112.762610  19407.909899    -80.972012  5  7  6 206       
PG18  19885.482715  16507.843675   6044.633216     30.409885  9  9  6 206       
PG19   3024.355003 -14668.153828  21652.970399   -422.593085  7  8  5 184       
PG20 -14215.621183  19310.141582 -11444.582523    511.913118  6 10  6 209       
PG21 -11334.486818  10107.701469 -20997.523532   -371.303854  6  9  2 219       
PG22  13883.484510   8722.923485  21141.399666   -449.327942  5  4    236       
PG23  26240.094127    -15.298111   5690.338250   -214.880195  2  5  6 167       
PG24 -20994.233265 -12382.423366  10774.845079    -52.202454  7  8 10 188       
PG25 -16897.351903  10590.058756  17241.512216   -612.043844  4  7  5 160       
PG26  -3486.123227  25054.647501  -7880.934583    -92.314753  7  6  9 191       
PG27  10680.448560  12664.492023 -20903.209586    362.473278  5  4  3 165       
PG28  13697.431974 -22457.887203  -3224.856746    729.245122  4  3  5 161       
PG29 -25791.541764   4855.675959  -4078.138905    419.585748  6  8 10 231       
PG30   7188.435108 -15375.066684 -20378.906318     53.827975 11  4  1 197       
PG31   2262.265927  21237.191979  15551.340901    109.575078  6  6  3 204       
PG32 -11574.303876  15028.907732  18596.643827   -480.532217  6  4  4 184       
EOF
